[Satellite]
VERSION=1.1
NAME=CANX-7
NICKNAME=CANX-7
TLE1=1 41788U 16059F   19317.77618810  .00006925  00000-0  10187-2 0  9999
TLE2=2 41788  98.2461  35.7474 0026890 254.2309 105.5940 14.75509844167836
STATUS=0
